{"\"Rochester, MN\"":{"lat":"43.9499166","lon":"-92.3356986","geoid":"40340","areacode":"MT2740340000000"},"\"Raleigh, NC\"":{"lat":"35.7567464","lon":"-78.4604412","geoid":"39580","areacode":"MT3739580000000"},"\"Rapid City, SD\"":{"lat":"44.1951082","lon":"-102.916612","geoid":"39660","areacode":"MT4639660000000"},"\"Rochester, NY\"":{"lat":"43.148038","lon":"-77.5232575","geoid":"40380","areacode":"MT3640380000000"},"\"Reading, PA\"":{"lat":"40.4139565","lon":"-75.9268598","geoid":"39740","areacode":"MT4239740000000"},"\"Redding, CA\"":{"lat":"40.7605142","lon":"-122.0435556","geoid":"39820","areacode":"MT0639820000000"},"\"Reno, NV\"":{"lat":"40.5007953","lon":"-119.7311608","geoid":"39900","areacode":"MT3239900000000"},"\"Richmond, VA\"":{"lat":"37.4634618","lon":"-77.4751772","geoid":"40060","areacode":"MT5140060000000"},"\"Riverside-San Bernardino-Ontario, CA\"":{"lat":"34.5375344","lon":"-116.1309212","geoid":"40140","areacode":"MT0640140000000"},"\"Roanoke, VA\"":{"lat":"37.2862262","lon":"-79.9469346","geoid":"40220","areacode":"MT5140220000000"},"\"Rockford, IL\"":{"lat":"42.331183","lon":"-89.0429139","geoid":"40420","areacode":"MT1740420000000"},"\"Rocky Mount, NC\"":{"lat":"35.9410455","lon":"-77.7985494","geoid":"40580","areacode":"MT3740580000000"},"\"Rome, GA\"":{"lat":"34.2636769","lon":"-85.2137297","geoid":"40660","areacode":"MT1340660000000"},"\"San Francisco-Oakland-Hayward, CA\"":{"lat":"37.7737185","lon":"-122.2744317","geoid":"41860","areacode":"MT0641860000000"},"\"Sacramento--Roseville--Arden-Arcade, CA\"":{"lat":"38.7896779","lon":"-121.0057504","geoid":"40900","areacode":"MT0640900000000"},"\"San Jose-Sunnyvale-Santa Clara, CA\"":{"lat":"36.9084718","lon":"-121.3713721","geoid":"41940","areacode":"MT0641940000000"},"\"Saginaw, MI\"":{"lat":"43.3282667","lon":"-84.05541","geoid":"40980","areacode":"MT2640980000000"},"\"St. Cloud, MN\"":{"lat":"45.5930311","lon":"-94.4883636","geoid":"41060","areacode":"MT2741060000000"},"\"St. George, UT\"":{"lat":"37.2625308","lon":"-113.4878003","geoid":"41100","areacode":"MT4941100000000"},"\"St. Joseph, MO-KS\"":{"lat":"39.834843","lon":"-94.7837537","geoid":"41140","areacode":"MT2941140000000"},"\"St. Louis, MO-IL\"":{"lat":"38.7404035","lon":"-90.3459564","geoid":"41180","areacode":"MT2941180000000"},"\"Salem, OR\"":{"lat":"44.9033845","lon":"-122.9017571","geoid":"41420","areacode":"MT4141420000000"},"\"Salinas, CA\"":{"lat":"36.240107","lon":"-121.3155732","geoid":"41500","areacode":"MT0641500000000"},"\"Salisbury, MD-DE\"":{"lat":"38.3995211","lon":"-75.4782615","geoid":"41540","areacode":"MT1041540000000"},"\"Salt Lake City, UT\"":{"lat":"40.5225926","lon":"-112.9605168","geoid":"41620","areacode":"MT4941620000000"},"\"San Angelo, TX\"":{"lat":"31.3653095","lon":"-100.6594181","geoid":"41660","areacode":"MT4841660000000"},"\"San Antonio-New Braunfels, TX\"":{"lat":"29.4330599","lon":"-98.6069734","geoid":"41700","areacode":"MT4841700000000"},"\"San Diego-Carlsbad, CA\"":{"lat":"33.0236041","lon":"-116.7761174","geoid":"41740","areacode":"MT0641740000000"},"\"San Luis Obispo-Paso Robles-Arroyo Grande, CA\"":{"lat":"35.3852263","lon":"-120.4475418","geoid":"42020","areacode":"MT0642020000000"},"\"Santa Cruz-Watsonville, CA\"":{"lat":"37.0124883","lon":"-122.007205","geoid":"42100","areacode":"MT0642100000000"},"\"Santa Fe, NM\"":{"lat":"35.5143241","lon":"-105.9657706","geoid":"42140","areacode":"MT3542140000000"},"\"Santa Maria-Santa Barbara, CA\"":{"lat":"34.5370572","lon":"-120.0399729","geoid":"42200","areacode":"MT0642200000000"},"\"Santa Rosa, CA\"":{"lat":"38.5251824","lon":"-122.9261095","geoid":"42220","areacode":"MT0642220000000"},"\"Savannah, GA\"":{"lat":"32.1093306","lon":"-81.273325","geoid":"42340","areacode":"MT1342340000000"},"\"Scranton--Wilkes-Barre--Hazleton, PA\"":{"lat":"41.3228807","lon":"-75.8981878","geoid":"42540","areacode":"MT4242540000000"},"\"Seattle-Tacoma-Bellevue, WA\"":{"lat":"47.5530503","lon":"-121.8831653","geoid":"42660","areacode":"MT5342660000000"},"\"Tacoma-Lakewood, WA\"":{"lat":"47.5530503","lon":"-121.8831653","geoid":"42660","areacode":"MT5342660000000"},"\"Sebastian-Vero Beach, FL\"":{"lat":"27.7006382","lon":"-80.5748033","geoid":"42680","areacode":"MT1242680000000"},"\"Sebring, FL\"":{"lat":"27.3426272","lon":"-81.3409213","geoid":"42700","areacode":"MT1242700000000"},"\"Sheboygan, WI\"":{"lat":"43.7460015","lon":"-87.7305455","geoid":"43100","areacode":"MT5543100000000"},"\"Sherman-Denison, TX\"":{"lat":"33.6245321","lon":"-96.6757378","geoid":"43300","areacode":"MT4843300000000"},"\"Shreveport-Bossier City, LA\"":{"lat":"32.4906379","lon":"-93.6711914","geoid":"43340","areacode":"MT2243340000000"},"\"Sumter, SC\"":{"lat":"33.9162531","lon":"-80.3822876","geoid":"44940","areacode":"MT4544940000000"},"\"Sierra Vista-Douglas, AZ\"":{"lat":"31.8401287","lon":"-109.7751627","geoid":"43420","areacode":"MT0443420000000"},"\"Sioux City, IA-NE-SD\"":{"lat":"42.5806338","lon":"-96.3760468","geoid":"43580","areacode":"MT1943580000000"},"\"Sioux Falls, SD\"":{"lat":"43.4954205","lon":"-96.9953387","geoid":"43620","areacode":"MT4643620000000"},"\"South Bend-Mishawaka, IN-MI\"":{"lat":"41.7749808","lon":"-86.1230143","geoid":"43780","areacode":"MT1843780000000"},"\"Spartanburg, SC\"":{"lat":"34.8346199","lon":"-81.8424008","geoid":"43900","areacode":"MT4543900000000"},"\"Spokane-Spokane Valley, WA\"":{"lat":"48.1890407","lon":"-117.5732186","geoid":"44060","areacode":"MT5344060000000"},"\"Springfield, IL\"":{"lat":"39.828565","lon":"-89.6962052","geoid":"44100","areacode":"MT1744100000000"},"\"Springfield, MO\"":{"lat":"37.3608699","lon":"-93.1802617","geoid":"44180","areacode":"MT2944180000000"},"\"Springfield, OH\"":{"lat":"39.9170315","lon":"-83.783676","geoid":"44220","areacode":"MT3944220000000"},"\"State College, PA\"":{"lat":"40.9091603","lon":"-77.8478296","geoid":"44300","areacode":"MT4244300000000"},"\"Staunton-Waynesboro, VA\"":{"lat":"38.1609584","lon":"-79.1276321","geoid":"44420","areacode":"MT5144420000000"},"\"Stockton-Lodi, CA\"":{"lat":"37.9349815","lon":"-121.272244","geoid":"44700","areacode":"MT0644700000000"},"\"Syracuse, NY\"":{"lat":"43.0065163","lon":"-76.1961336","geoid":"45060","areacode":"MT3645060000000"},"\"Tallahassee, FL\"":{"lat":"30.3864276","lon":"-84.2804098","geoid":"45220","areacode":"MT1245220000000"},"\"Tampa-St. Petersburg-Clearwater, FL\"":{"lat":"28.1259071","lon":"-82.4652858","geoid":"45300","areacode":"MT1245300000000"},"\"Terre Haute, IN\"":{"lat":"39.392389","lon":"-87.3470958","geoid":"45460","areacode":"MT1845460000000"},"\"Texarkana, TX-AR\"":{"lat":"33.4783701","lon":"-94.2071694","geoid":"45500","areacode":"MT4845500000000"},"\"The Villages, FL\"":{"lat":"28.7142938","lon":"-82.0747152","geoid":"45540","areacode":"MT1245540000000"},"\"Vineland-Bridgeton, NJ\"":{"lat":"39.3283874","lon":"-75.1216435","geoid":"47220","areacode":"MT3447220000000"},"\"Toledo, OH\"":{"lat":"41.5439974","lon":"-83.6908887","geoid":"45780","areacode":"MT3945780000000"},"\"Topeka, KS\"":{"lat":"39.0413888","lon":"-95.8026393","geoid":"45820","areacode":"MT2045820000000"},"\"Trenton, NJ\"":{"lat":"40.2825027","lon":"-74.703724","geoid":"45940","areacode":"MT3445940000000"},"\"Tucson, AZ\"":{"lat":"32.1285226","lon":"-111.7830267","geoid":"46060","areacode":"MT0446060000000"},"\"Tulsa, OK\"":{"lat":"36.2541502","lon":"-96.1749783","geoid":"46140","areacode":"MT4046140000000"},"\"Tuscaloosa, AL\"":{"lat":"33.1606112","lon":"-87.7151664","geoid":"46220","areacode":"MT0146220000000"},"\"Tyler, TX\"":{"lat":"32.3751061","lon":"-95.2687428","geoid":"46340","areacode":"MT4846340000000"},"\"Urban Honolulu, HI\"":{"lat":"21.4613654","lon":"-158.201974","geoid":"46520","areacode":"MT1546520000000"},"\"Utica-Rome, NY\"":{"lat":"43.3322887","lon":"-75.173169","geoid":"46540","areacode":"MT3646540000000"},"\"Valdosta, GA\"":{"lat":"30.8274985","lon":"-83.2421316","geoid":"46660","areacode":"MT1346660000000"},"\"Vallejo-Fairfield, CA\"":{"lat":"38.2672255","lon":"-121.939594","geoid":"46700","areacode":"MT0646700000000"},"\"Victoria, TX\"":{"lat":"28.7314546","lon":"-97.1969934","geoid":"47020","areacode":"MT4847020000000"},"\"Virginia Beach-Norfolk-Newport News, VA-NC\"":{"lat":"36.8560812","lon":"-76.3737908","geoid":"47260","areacode":"MT5147260000000"},"\"Visalia-Porterville, CA\"":{"lat":"36.2288241","lon":"-118.781061","geoid":"47300","areacode":"MT0647300000000"},"\"Waco, TX\"":{"lat":"31.4272264","lon":"-97.0934727","geoid":"47380","areacode":"MT4847380000000"},"\"Watertown-Fort Drum, NY\"":{"lat":"43.9965164","lon":"-76.0529023","geoid":"48060","areacode":"MT3648060000000"},"\"Walla Walla, WA\"":{"lat":"46.2635366","lon":"-118.2558832","geoid":"47460","areacode":"MT5347460000000"},"\"Warner Robins, GA\"":{"lat":"32.4015944","lon":"-83.6350953","geoid":"47580","areacode":"MT1347580000000"},"\"Washington-Arlington-Alexandria, DC-VA-MD-WV\"":{"lat":"38.8169283","lon":"-77.4482275","geoid":"47900","areacode":"MT1147900000000"},"\"Waterloo-Cedar Falls, IA\"":{"lat":"42.5367962","lon":"-92.471608","geoid":"47940","areacode":"MT1947940000000"},"\"Wausau, WI\"":{"lat":"44.8980363","lon":"-89.757823","geoid":"48140","areacode":"MT5548140000000"},"\"York-Hanover, PA\"":{"lat":"39.9217514","lon":"-76.7288887","geoid":"49620","areacode":"MT4249620000000"},"\"Youngstown-Warren-Boardman, OH-PA\"":{"lat":"41.2363015","lon":"-80.5618679","geoid":"49660","areacode":"MT3949660000000"},"\"Weirton-Steubenville, WV-OH\"":{"lat":"40.3889142","lon":"-80.7019657","geoid":"48260","areacode":"MT3948260000000"},"\"Yuba City, CA\"":{"lat":"39.1609692","lon":"-121.5118327","geoid":"49700","areacode":"MT0649700000000"},"\"Wenatchee, WA\"":{"lat":"47.8211284","lon":"-120.2675436","geoid":"48300","areacode":"MT5348300000000"},"\"Wheeling, WV-OH\"":{"lat":"39.975509","lon":"-80.8470113","geoid":"48540","areacode":"MT5448540000000"},"\"Yuma, AZ\"":{"lat":"32.7739424","lon":"-113.910905","geoid":"49740","areacode":"MT0449740000000"},"\"Wichita, KS\"":{"lat":"37.6298391","lon":"-97.3988237","geoid":"48620","areacode":"MT2048620000000"},"\"Wichita Falls, TX\"":{"lat":"33.7761441","lon":"-98.5019073","geoid":"48660","areacode":"MT4848660000000"},"\"Williamsport, PA\"":{"lat":"41.3436196","lon":"-77.0552254","geoid":"48700","areacode":"MT4248700000000"},"\"Wilmington, NC\"":{"lat":"34.4260331","lon":"-77.889634","geoid":"48900","areacode":"MT3748900000000"},"\"Winchester, VA-WV\"":{"lat":"39.2729744","lon":"-78.4718276","geoid":"49020","areacode":"MT5149020000000"},"\"Winston-Salem, NC\"":{"lat":"36.0788515","lon":"-80.3450642","geoid":"49180","areacode":"MT3749180000000"},"\"Yakima, WA\"":{"lat":"46.4565581","lon":"-120.7401446","geoid":"49420","areacode":"MT5349420000000"},"\"Mount Vernon-Anacortes, WA\"":{"lat":"48.4932917","lon":"-121.8157703","geoid":"34580","areacode":"MT5334580000000"},"\"Muncie, IN\"":{"lat":"40.2275433","lon":"-85.3992617","geoid":"34620","areacode":"MT1834620000000"},"\"Muskegon, MI\"":{"lat":"43.2892579","lon":"-86.751892","geoid":"34740","areacode":"MT2634740000000"},"\"Myrtle Beach-Conway-North Myrtle Beach, SC-NC\"":{"lat":"33.9690951","lon":"-78.6127235","geoid":"34820","areacode":"MT4534820000000"},"\"Napa, CA\"":{"lat":"38.5070999","lon":"-122.3259045","geoid":"34900","areacode":"MT0634900000000"},"\"Naples-Immokalee-Marco Island, FL\"":{"lat":"26.118786","lon":"-81.4009553","geoid":"34940","areacode":"MT1234940000000"},"\"Nashville-Davidson--Murfreesboro--Franklin, TN\"":{"lat":"36.0885065","lon":"-86.7266015","geoid":"34980","areacode":"MT4734980000000"},"\"New Bern, NC\"":{"lat":"35.1181789","lon":"-77.0825413","geoid":"35100","areacode":"MT3735100000000"},"\"New Orleans-Metairie, LA\"":{"lat":"29.805532","lon":"-89.7013821","geoid":"35380","areacode":"MT2235380000000"},"\"New York-Newark-Jersey City, NY-NJ-PA\"":{"lat":"40.8987884","lon":"-73.9031302","geoid":"35620","areacode":"MT3635620000000"},"\"Newark, NJ-PA\"":{"lat":"40.8987884","lon":"-73.9031302","geoid":"35620","areacode":"MT3635620000000"},"\"Niles-Benton Harbor, MI\"":{"lat":"41.7926389","lon":"-86.7418216","geoid":"35660","areacode":"MT2635660000000"},"\"North Port-Sarasota-Bradenton, FL\"":{"lat":"27.3642465","lon":"-82.3193366","geoid":"35840","areacode":"MT1235840000000"},"\"Ocala, FL\"":{"lat":"29.2028047","lon":"-82.0431004","geoid":"36100","areacode":"MT1236100000000"},"\"Ocean City, NJ\"":{"lat":"39.0861425","lon":"-74.8477158","geoid":"36140","areacode":"MT3436140000000"},"\"Odessa, TX\"":{"lat":"31.8653008","lon":"-102.5425068","geoid":"36220","areacode":"MT4836220000000"},"\"Ogden-Clearfield, UT\"":{"lat":"41.476021","lon":"-113.052922","geoid":"36260","areacode":"MT4936260000000"},"\"Oklahoma City, OK\"":{"lat":"35.4309676","lon":"-97.5069659","geoid":"36420","areacode":"MT4036420000000"},"\"Olympia-Tumwater, WA\"":{"lat":"46.9358216","lon":"-122.8301524","geoid":"36500","areacode":"MT5336500000000"},"\"Omaha-Council Bluffs, NE-IA\"":{"lat":"41.2904587","lon":"-95.9999701","geoid":"36540","areacode":"MT3136540000000"},"\"Orlando-Kissimmee-Sanford, FL\"":{"lat":"28.434348","lon":"-81.3558764","geoid":"36740","areacode":"MT1236740000000"},"\"Oshkosh-Neenah, WI\"":{"lat":"44.0857068","lon":"-88.6681488","geoid":"36780","areacode":"MT5536780000000"},"\"Owensboro, KY\"":{"lat":"37.6937232","lon":"-87.077058","geoid":"36980","areacode":"MT2136980000000"},"\"Oxnard-Thousand Oaks-Ventura, CA\"":{"lat":"34.3587415","lon":"-119.1331432","geoid":"37100","areacode":"MT0637100000000"},"\"Pensacola-Ferry Pass-Brent, FL\"":{"lat":"30.6554013","lon":"-87.1618275","geoid":"37860","areacode":"MT1237860000000"},"\"Peoria, IL\"":{"lat":"40.7882548","lon":"-89.514745","geoid":"37900","areacode":"MT1737900000000"},"\"Philadelphia-Camden-Wilmington, PA-NJ-DE-MD\"":{"lat":"39.8951304","lon":"-75.3120032","geoid":"37980","areacode":"MT4237980000000"},"\"Palm Bay-Melbourne-Titusville, FL\"":{"lat":"28.2983043","lon":"-80.7003309","geoid":"37340","areacode":"MT1237340000000"},"\"Panama City, FL\"":{"lat":"30.1010953","lon":"-85.4749707","geoid":"37460","areacode":"MT1237460000000"},"\"Parkersburg-Vienna, WV\"":{"lat":"39.1415131","lon":"-81.4604099","geoid":"37620","areacode":"MT5437620000000"},"\"Phoenix-Mesa-Scottsdale, AZ\"":{"lat":"33.1857653","lon":"-112.0678624","geoid":"38060","areacode":"MT0438060000000"},"\"Pine Bluff, AR\"":{"lat":"34.0812083","lon":"-91.9457289","geoid":"38220","areacode":"MT0538220000000"},"\"Pittsburgh, PA\"":{"lat":"40.4343378","lon":"-79.8280615","geoid":"38300","areacode":"MT4238300000000"},"\"Prescott, AZ\"":{"lat":"34.6312117","lon":"-112.5773855","geoid":"39140","areacode":"MT0439140000000"},"\"Pocatello, ID\"":{"lat":"42.6929211","lon":"-112.2289819","geoid":"38540","areacode":"MT1638540000000"},"\"Portland-Vancouver-Hillsboro, OR-WA\"":{"lat":"45.6006204","lon":"-122.4843457","geoid":"38900","areacode":"MT4138900000000"},"\"Port St. Lucie, FL\"":{"lat":"27.2326989","lon":"-80.4267701","geoid":"38940","areacode":"MT1238940000000"},"\"Provo-Orem, UT\"":{"lat":"39.872067","lon":"-112.3590592","geoid":"39340","areacode":"MT4939340000000"},"\"Pueblo, CO\"":{"lat":"38.1706581","lon":"-104.4898925","geoid":"39380","areacode":"MT0839380000000"},"\"Punta Gorda, FL\"":{"lat":"26.8689328","lon":"-81.9410769","geoid":"39460","areacode":"MT1239460000000"},"\"Racine, WI\"":{"lat":"42.7540747","lon":"-87.8","geoid":"39540","areacode":"MT5539540000000"},"\"Abilene, TX\"":{"lat":"32.4520222","lon":"-99.7187428","geoid":"10180","areacode":"MT4810180000000"},"\"Akron, OH\"":{"lat":"41.1466395","lon":"-81.3501104","geoid":"10420","areacode":"MT3910420000000"},"\"Albany, GA\"":{"lat":"31.5893026","lon":"-84.1749127","geoid":"10500","areacode":"MT1310500000000"},"\"Albany, OR\"":{"lat":"44.4888982","lon":"-122.5372084","geoid":"10540","areacode":"MT4110540000000"},"\"Albany-Schenectady-Troy, NY\"":{"lat":"42.7879202","lon":"-73.9423479","geoid":"10580","areacode":"MT3610580000000"},"\"Albuquerque, NM\"":{"lat":"35.1166033","lon":"-106.4565347","geoid":"10740","areacode":"MT3510740000000"},"\"Alexandria, LA\"":{"lat":"31.325334","lon":"-92.5468804","geoid":"10780","areacode":"MT2210780000000"},"\"Allentown-Bethlehem-Easton, PA-NJ\"":{"lat":"40.7893392","lon":"-75.398158","geoid":"10900","areacode":"MT4210900000000"},"\"Altoona, PA\"":{"lat":"40.4979217","lon":"-78.3106362","geoid":"11020","areacode":"MT4211020000000"},"\"Amarillo, TX\"":{"lat":"35.2480011","lon":"-101.9086668","geoid":"11100","areacode":"MT4811100000000"},"\"Ames, IA\"":{"lat":"42.0375379","lon":"-93.4660934","geoid":"11180","areacode":"MT1911180000000"},"\"Anchorage, AK\"":{"lat":"62.2127844","lon":"-149.6782218","geoid":"11260","areacode":"MT0211260000000"},"\"Ann Arbor, MI\"":{"lat":"42.2523272","lon":"-83.8446336","geoid":"11460","areacode":"MT2611460000000"},"\"Anniston-Oxford-Jacksonville, AL\"":{"lat":"33.7717061","lon":"-85.8225133","geoid":"11500","areacode":"MT0111500000000"},"\"Appleton, WI\"":{"lat":"44.2906032","lon":"-88.3723255","geoid":"11540","areacode":"MT5511540000000"},"\"Asheville, NC\"":{"lat":"35.5956693","lon":"-82.6816145","geoid":"11700","areacode":"MT3711700000000"},"\"Deltona-Daytona Beach-Ormond Beach, FL\"":{"lat":"29.1789002","lon":"-81.1890231","geoid":"19660","areacode":"MT1219660000000"},"\"Denver-Aurora-Lakewood, CO\"":{"lat":"39.4347492","lon":"-104.901209","geoid":"19740","areacode":"MT0819740000000"},"\"Des Moines-West Des Moines, IA\"":{"lat":"41.5448597","lon":"-93.9434866","geoid":"19780","areacode":"MT1919780000000"},"\"Detroit-Warren-Dearborn, MI\"":{"lat":"42.7218478","lon":"-83.2008463","geoid":"19820","areacode":"MT2619820000000"},"\"Dothan, AL\"":{"lat":"31.2454962","lon":"-85.4691714","geoid":"20020","areacode":"MT0120020000000"},"\"Dover, DE\"":{"lat":"39.0970884","lon":"-75.5029819","geoid":"20100","areacode":"MT1020100000000"},"\"Dubuque, IA\"":{"lat":"42.4634808","lon":"-90.8787708","geoid":"20220","areacode":"MT1920220000000"},"\"Duluth, MN-WI\"":{"lat":"47.3297007","lon":"-92.3762591","geoid":"20260","areacode":"MT2720260000000"},"\"Durham-Chapel Hill, NC\"":{"lat":"35.995536","lon":"-79.0969897","geoid":"20500","areacode":"MT3720500000000"},"\"Lexington-Fayette, KY\"":{"lat":"38.102844","lon":"-84.4385721","geoid":"30460","areacode":"MT2130460000000"},"\"Lima, OH\"":{"lat":"40.7716274","lon":"-84.1061032","geoid":"30620","areacode":"MT3930620000000"},"\"Lincoln, NE\"":{"lat":"40.8174581","lon":"-96.8687434","geoid":"30700","areacode":"MT3130700000000"},"\"Little Rock-North Little Rock-Conway, AR\"":{"lat":"34.7558276","lon":"-92.4006994","geoid":"30780","areacode":"MT0530780000000"},"\"Logan, UT-ID\"":{"lat":"41.8853462","lon":"-111.7860391","geoid":"30860","areacode":"MT4930860000000"},"\"Longview, TX\"":{"lat":"32.364601","lon":"-94.819897","geoid":"30980","areacode":"MT4830980000000"},"\"Longview, WA\"":{"lat":"46.1859234","lon":"-122.6586822","geoid":"31020","areacode":"MT5331020000000"},"\"Los Angeles-Long Beach-Glendale, CA\"":{"lat":"34.1090244","lon":"-118.1825492","geoid":"31080","areacode":"MT0631080000000"},"\"Anaheim-Santa Ana-Irvine, CA\"":{"lat":"34.1090244","lon":"-118.1825492","geoid":"31080","areacode":"MT0631080000000"},"\"Los Angeles-Long Beach-Anaheim, CA\"":{"lat":"34.1090244","lon":"-118.1825492","geoid":"31080","areacode":"MT0631080000000"},"\"Louisville/Jefferson County, KY-IN\"":{"lat":"38.3352396","lon":"-85.6689414","geoid":"31140","areacode":"MT2131140000000"},"\"Lubbock, TX\"":{"lat":"33.4703271","lon":"-101.6488249","geoid":"31180","areacode":"MT4831180000000"},"\"Lynchburg, VA\"":{"lat":"37.3649258","lon":"-79.2166894","geoid":"31340","areacode":"MT5131340000000"},"\"Macon, GA\"":{"lat":"32.8561967","lon":"-83.7143131","geoid":"31420","areacode":"MT1331420000000"},"\"Madera, CA\"":{"lat":"37.2098213","lon":"-119.7498023","geoid":"31460","areacode":"MT0631460000000"},"\"Madison, WI\"":{"lat":"43.0842875","lon":"-89.5971781","geoid":"31540","areacode":"MT5531540000000"},"\"Manhattan, KS\"":{"lat":"39.3410533","lon":"-96.5099021","geoid":"31740","areacode":"MT2031740000000"},"\"Mankato-North Mankato, MN\"":{"lat":"44.1548096","lon":"-94.1478013","geoid":"31860","areacode":"MT2731860000000"},"\"Mansfield, OH\"":{"lat":"40.774159","lon":"-82.5427812","geoid":"31900","areacode":"MT3931900000000"},"\"McAllen-Edinburg-Mission, TX\"":{"lat":"26.3963839","lon":"-98.18099","geoid":"32580","areacode":"MT4832580000000"},"\"Medford, OR\"":{"lat":"42.4116284","lon":"-122.6756846","geoid":"32780","areacode":"MT4132780000000"},"\"Memphis, TN-MS-AR\"":{"lat":"35.0085568","lon":"-89.8218159","geoid":"32820","areacode":"MT4732820000000"},"\"Merced, CA\"":{"lat":"37.1948063","lon":"-120.7228019","geoid":"32900","areacode":"MT0632900000000"},"\"Miami-Fort Lauderdale-West Palm Beach, FL\"":{"lat":"26.1018281","lon":"-80.4787552","geoid":"33100","areacode":"MT1233100000000"},"\"Michigan City-La Porte, IN\"":{"lat":"41.5490129","lon":"-86.7447386","geoid":"33140","areacode":"MT1833140000000"},"\"Midland, MI\"":{"lat":"43.6482031","lon":"-84.3794144","geoid":"33220","areacode":"MT2633220000000"},"\"Midland, TX\"":{"lat":"32.0923594","lon":"-101.9945395","geoid":"33260","areacode":"MT4833260000000"},"\"Milwaukee-Waukesha-West Allis, WI\"":{"lat":"43.0176524","lon":"-87.95","geoid":"33340","areacode":"MT5533340000000"},"\"Minneapolis-St. Paul-Bloomington, MN-WI\"":{"lat":"45.0612067","lon":"-93.3515875","geoid":"33460","areacode":"MT2733460000000"},"\"Missoula, MT\"":{"lat":"47.0272626","lon":"-113.8926807","geoid":"33540","areacode":"MT3033540000000"},"\"Mobile, AL\"":{"lat":"30.6845725","lon":"-88.1965682","geoid":"33660","areacode":"MT0133660000000"},"\"Modesto, CA\"":{"lat":"37.5623842","lon":"-121.0026557","geoid":"33700","areacode":"MT0633700000000"},"\"Monroe, LA\"":{"lat":"32.6904772","lon":"-92.2627929","geoid":"33740","areacode":"MT2233740000000"},"\"Monroe, MI\"":{"lat":"41.916097","lon":"-83.4871059","geoid":"33780","areacode":"MT2633780000000"},"\"Montgomery, AL\"":{"lat":"32.3656313","lon":"-86.4045848","geoid":"33860","areacode":"MT0133860000000"},"\"Morgantown, WV\"":{"lat":"39.5251551","lon":"-79.8019121","geoid":"34060","areacode":"MT5434060000000"},"\"Morristown, TN\"":{"lat":"36.1154845","lon":"-83.376546","geoid":"34100","areacode":"MT4734100000000"},"\"East Stroudsburg, PA\"":{"lat":"41.0562401","lon":"-75.3290651","geoid":"20700","areacode":"MT4220700000000"},"\"Eau Claire, WI\"":{"lat":"44.938029","lon":"-91.285538","geoid":"20740","areacode":"MT5520740000000"},"\"El Centro, CA\"":{"lat":"33.0408143","lon":"-115.3554001","geoid":"20940","areacode":"MT0620940000000"},"\"Elizabethtown-Fort Knox, KY\"":{"lat":"37.7329803","lon":"-85.9721707","geoid":"21060","areacode":"MT2121060000000"},"\"Elkhart-Goshen, IN\"":{"lat":"41.6006928","lon":"-85.8639864","geoid":"21140","areacode":"MT1821140000000"},"\"Elmira, NY\"":{"lat":"42.1552802","lon":"-76.7471789","geoid":"21300","areacode":"MT3621300000000"},"\"El Paso, TX\"":{"lat":"31.527394","lon":"-105.5213326","geoid":"21340","areacode":"MT4821340000000"},"\"Erie, PA\"":{"lat":"42.1179519","lon":"-80.0963858","geoid":"21500","areacode":"MT4221500000000"},"\"Eugene, OR\"":{"lat":"43.9283286","lon":"-122.8976901","geoid":"21660","areacode":"MT4121660000000"},"\"Evansville, IN-KY\"":{"lat":"38.0200703","lon":"-87.5861659","geoid":"21780","areacode":"MT1821780000000"},"\"Fairbanks, AK\"":{"lat":"64.6923172","lon":"-146.6017326","geoid":"21820","areacode":"MT0221820000000"},"\"Fargo, ND-MN\"":{"lat":"46.9148591","lon":"-96.9601826","geoid":"22020","areacode":"MT3822020000000"},"\"Farmington, NM\"":{"lat":"36.5116245","lon":"-108.3245778","geoid":"22140","areacode":"MT3522140000000"},"\"Fayetteville, NC\"":{"lat":"35.0379563","lon":"-78.9822092","geoid":"22180","areacode":"MT3722180000000"},"\"Fayetteville-Springdale-Rogers, AR-MO\"":{"lat":"36.1976326","lon":"-94.1198967","geoid":"22220","areacode":"MT0522220000000"},"\"Flagstaff, AZ\"":{"lat":"35.8296919","lon":"-111.7737277","geoid":"22380","areacode":"MT0422380000000"},"\"Flint, MI\"":{"lat":"43.0210768","lon":"-83.7063718","geoid":"22420","areacode":"MT2622420000000"},"\"Florence, SC\"":{"lat":"34.1537745","lon":"-79.8060793","geoid":"22500","areacode":"MT4522500000000"},"\"Florence-Muscle Shoals, AL\"":{"lat":"34.7992544","lon":"-87.7193881","geoid":"22520","areacode":"MT0122520000000"},"\"Fond du Lac, WI\"":{"lat":"43.7547219","lon":"-88.493284","geoid":"22540","areacode":"MT5522540000000"},"\"Fort Collins, CO\"":{"lat":"40.6580933","lon":"-105.4867638","geoid":"22660","areacode":"MT0822660000000"},"\"Fort Smith, AR-OK\"":{"lat":"35.1955345","lon":"-94.562533","geoid":"22900","areacode":"MT0522900000000"},"\"Fort Wayne, IN\"":{"lat":"41.0069993","lon":"-85.2164239","geoid":"23060","areacode":"MT1823060000000"},"\"Fresno, CA\"":{"lat":"36.7610058","lon":"-119.6550193","geoid":"23420","areacode":"MT0623420000000"},"\"Gadsden, AL\"":{"lat":"34.0476407","lon":"-86.0342629","geoid":"23460","areacode":"MT0123460000000"},"\"Gainesville, FL\"":{"lat":"29.6779808","lon":"-82.4799713","geoid":"23540","areacode":"MT1223540000000"},"\"Gainesville, GA\"":{"lat":"34.3175876","lon":"-83.8184973","geoid":"23580","areacode":"MT1323580000000"},"\"Gary, IN\"":{"lat":"41.5934","lon":"-87.3464","geoid":"-","areacode":"-"},"\"Gettysburg, PA\"":{"lat":"39.8694707","lon":"-77.2177296","geoid":"23900","areacode":"MT4223900000000"},"\"Glens Falls, NY\"":{"lat":"43.4404503","lon":"-73.6367573","geoid":"24020","areacode":"MT3624020000000"},"\"Goldsboro, NC\"":{"lat":"35.3541896","lon":"-78.0086695","geoid":"24140","areacode":"MT3724140000000"},"\"Grand Forks, ND-MN\"":{"lat":"47.835929","lon":"-96.8426809","geoid":"24220","areacode":"MT3824220000000"},"\"Grand Island, NE\"":{"lat":"41.0385675","lon":"-98.2728346","geoid":"24260","areacode":"MT3124260000000"},"\"Grand Junction, CO\"":{"lat":"39.0194924","lon":"-108.4618366","geoid":"24300","areacode":"MT0824300000000"},"\"Grand Rapids-Wyoming, MI\"":{"lat":"42.9785793","lon":"-85.8112093","geoid":"24340","areacode":"MT2624340000000"},"\"Grants Pass, OR\"":{"lat":"42.3869815","lon":"-123.5716261","geoid":"24420","areacode":"MT4124420000000"},"\"Great Falls, MT\"":{"lat":"47.3164427","lon":"-111.350571","geoid":"24500","areacode":"MT3024500000000"},"\"Greeley, CO\"":{"lat":"40.5536965","lon":"-104.3942215","geoid":"24540","areacode":"MT0824540000000"},"\"Green Bay, WI\"":{"lat":"44.4739612","lon":"-87.9959258","geoid":"24580","areacode":"MT5524580000000"},"\"Greensboro-High Point, NC\"":{"lat":"36.0252039","lon":"-79.7926333","geoid":"24660","areacode":"MT3724660000000"},"\"Greenville, NC\"":{"lat":"35.592965","lon":"-77.373138","geoid":"24780","areacode":"MT3724780000000"},"\"Greenville-Anderson-Mauldin, SC\"":{"lat":"34.6837085","lon":"-82.4134227","geoid":"24860","areacode":"MT4524860000000"},"\"Gulfport-Biloxi-Pascagoula, MS\"":{"lat":"30.4302445","lon":"-88.9797355","geoid":"25060","areacode":"MT2825060000000"},"\"Hagerstown-Martinsburg, MD-WV\"":{"lat":"39.5421577","lon":"-77.8997577","geoid":"25180","areacode":"MT2425180000000"},"\"Hammond, LA\"":{"lat":"30.6215802","lon":"-90.4066329","geoid":"25220","areacode":"MT2225220000000"},"\"Hanford-Corcoran, CA\"":{"lat":"36.072478","lon":"-119.8155301","geoid":"25260","areacode":"MT0625260000000"},"\"Harrisburg-Carlisle, PA\"":{"lat":"40.3359242","lon":"-77.0504748","geoid":"25420","areacode":"MT4225420000000"},"\"Harrisonburg, VA\"":{"lat":"38.5075848","lon":"-78.8853213","geoid":"25500","areacode":"MT5125500000000"},"\"Hattiesburg, MS\"":{"lat":"31.1884408","lon":"-89.2327408","geoid":"25620","areacode":"MT2825620000000"},"\"Hickory-Lenoir-Morganton, NC\"":{"lat":"35.8146669","lon":"-81.4570668","geoid":"25860","areacode":"MT3725860000000"},"\"Hilton Head Island-Bluffton-Beaufort, SC\"":{"lat":"32.3867916","lon":"-80.8308775","geoid":"25940","areacode":"MT4525940000000"},"\"Hinesville, GA\"":{"lat":"31.7787803","lon":"-81.5764701","geoid":"25980","areacode":"MT1325980000000"},"\"Homosassa Springs, FL\"":{"lat":"28.8436402","lon":"-82.5248099","geoid":"26140","areacode":"MT1226140000000"},"\"Hot Springs, AR\"":{"lat":"34.5788613","lon":"-93.1469148","geoid":"26300","areacode":"MT0526300000000"},"\"Houma-Thibodaux, LA\"":{"lat":"29.3341299","lon":"-90.8436739","geoid":"26380","areacode":"MT2226380000000"},"\"Houston-The Woodlands-Sugar Land, TX\"":{"lat":"29.7495926","lon":"-95.3536422","geoid":"26420","areacode":"MT4826420000000"},"\"Huntington-Ashland, WV-KY-OH\"":{"lat":"38.3736991","lon":"-82.3852011","geoid":"26580","areacode":"MT5426580000000"},"\"Huntsville, AL\"":{"lat":"34.7828507","lon":"-86.7351182","geoid":"26620","areacode":"MT0126620000000"},"\"Idaho Falls, ID\"":{"lat":"43.6205362","lon":"-112.4208422","geoid":"26820","areacode":"MT1626820000000"},"\"Indianapolis-Carmel-Anderson, IN\"":{"lat":"39.7449323","lon":"-86.2045408","geoid":"26900","areacode":"MT1826900000000"},"\"Iowa City, IA\"":{"lat":"41.5178058","lon":"-91.6479303","geoid":"26980","areacode":"MT1926980000000"},"\"Ithaca, NY\"":{"lat":"42.4530029","lon":"-76.4734815","geoid":"27060","areacode":"MT3627060000000"},"\"Jackson, MI\"":{"lat":"42.2484738","lon":"-84.4208679","geoid":"27100","areacode":"MT2627100000000"},"\"Jackson, MS\"":{"lat":"32.3160014","lon":"-90.2208402","geoid":"27140","areacode":"MT2827140000000"},"\"Jackson, TN\"":{"lat":"35.610789","lon":"-88.8543926","geoid":"27180","areacode":"MT4727180000000"},"\"Jacksonville, FL\"":{"lat":"30.2371049","lon":"-81.7552353","geoid":"27260","areacode":"MT1227260000000"},"\"Jacksonville, NC\"":{"lat":"34.7631087","lon":"-77.4994691","geoid":"27340","areacode":"MT3727340000000"},"\"Janesville-Beloit, WI\"":{"lat":"42.6698802","lon":"-89.0752844","geoid":"27500","areacode":"MT5527500000000"},"\"Jefferson City, MO\"":{"lat":"38.6371207","lon":"-92.0892275","geoid":"27620","areacode":"MT2927620000000"},"\"Johnson City, TN\"":{"lat":"36.2506085","lon":"-82.3310257","geoid":"27740","areacode":"MT4727740000000"},"\"Johnstown, PA\"":{"lat":"40.5103124","lon":"-78.7104629","geoid":"27780","areacode":"MT4227780000000"},"\"Jonesboro, AR\"":{"lat":"35.6969701","lon":"-90.650173","geoid":"27860","areacode":"MT0527860000000"},"\"Joplin, MO\"":{"lat":"37.0555457","lon":"-94.3397364","geoid":"27900","areacode":"MT2927900000000"},"\"Kahului-Wailuku-Lahaina, HI\"":{"lat":"20.8559306","lon":"-156.6015503","geoid":"27980","areacode":"MT1527980000000"},"\"Kalamazoo-Portage, MI\"":{"lat":"42.2688708","lon":"-86.0373725","geoid":"28020","areacode":"MT2628020000000"},"\"Kankakee, IL\"":{"lat":"41.1395105","lon":"-87.8611165","geoid":"28100","areacode":"MT1728100000000"},"\"Kansas City, MO-KS\"":{"lat":"38.9318528","lon":"-94.4438224","geoid":"28140","areacode":"MT2928140000000"},"\"Kennewick-Richland, WA\"":{"lat":"46.363914","lon":"-119.2540809","geoid":"28420","areacode":"MT5328420000000"},"\"Killeen-Temple, TX\"":{"lat":"31.2027301","lon":"-97.7896384","geoid":"28660","areacode":"MT4828660000000"},"\"Kingsport-Bristol-Bristol, TN-VA\"":{"lat":"36.6041611","lon":"-82.4401446","geoid":"28700","areacode":"MT4728700000000"},"\"Kingston, NY\"":{"lat":"41.9472156","lon":"-74.2654583","geoid":"28740","areacode":"MT3628740000000"},"\"Knoxville, TN\"":{"lat":"36.0444622","lon":"-84.1361137","geoid":"28940","areacode":"MT4728940000000"},"\"Kokomo, IN\"":{"lat":"40.4835368","lon":"-86.1141178","geoid":"29020","areacode":"MT1829020000000"},"\"La Crosse-Onalaska, WI-MN\"":{"lat":"43.7832461","lon":"-91.318743","geoid":"29100","areacode":"MT5529100000000"},"\"Lafayette, LA\"":{"lat":"29.9577733","lon":"-92.0493498","geoid":"29180","areacode":"MT2229180000000"},"\"Lafayette-West Lafayette, IN\"":{"lat":"40.5147241","lon":"-86.9304622","geoid":"29200","areacode":"MT1829200000000"},"\"Lake Charles, LA\"":{"lat":"29.9787547","lon":"-93.2532434","geoid":"29340","areacode":"MT2229340000000"},"\"Lake Havasu City-Kingman, AZ\"":{"lat":"35.717705","lon":"-113.7496891","geoid":"29420","areacode":"MT0429420000000"},"\"Lakeland-Winter Haven, FL\"":{"lat":"27.9531147","lon":"-81.6927831","geoid":"29460","areacode":"MT1229460000000"},"\"Lancaster, PA\"":{"lat":"40.0419921","lon":"-76.250198","geoid":"29540","areacode":"MT4229540000000"},"\"Lansing-East Lansing, MI\"":{"lat":"42.7136586","lon":"-84.6053717","geoid":"29620","areacode":"MT2629620000000"},"\"Laredo, TX\"":{"lat":"27.7607987","lon":"-99.3407518","geoid":"29700","areacode":"MT4829700000000"},"\"Las Cruces, NM\"":{"lat":"32.3509119","lon":"-106.8321821","geoid":"29740","areacode":"MT3529740000000"},"\"Las Vegas-Henderson-Paradise, NV\"":{"lat":"36.214236","lon":"-115.0138188","geoid":"29820","areacode":"MT3229820000000"},"\"Lawrence, KS\"":{"lat":"38.8964154","lon":"-95.2909464","geoid":"29940","areacode":"MT2029940000000"},"\"Lawton, OK\"":{"lat":"34.5291104","lon":"-98.4309172","geoid":"30020","areacode":"MT4030020000000"},"\"Lebanon, PA\"":{"lat":"40.3715593","lon":"-76.4648697","geoid":"30140","areacode":"MT4230140000000"},"\"Lewiston, ID-WA\"":{"lat":"46.2516957","lon":"-116.9250166","geoid":"30300","areacode":"MT1630300000000"},"\"Athens-Clarke County, GA\"":{"lat":"33.943984","lon":"-83.2138965","geoid":"12020","areacode":"MT1312020000000"},"\"Atlanta-Sandy Springs-Roswell, GA\"":{"lat":"33.693728","lon":"-84.3999113","geoid":"12060","areacode":"MT1312060000000"},"\"Atlantic City-Hammonton, NJ\"":{"lat":"39.469354","lon":"-74.6337584","geoid":"12100","areacode":"MT3412100000000"},"\"Auburn-Opelika, AL\"":{"lat":"32.6040644","lon":"-85.3530477","geoid":"12220","areacode":"MT0112220000000"},"\"Augusta-Richmond County, GA-SC\"":{"lat":"33.4603713","lon":"-81.9828327","geoid":"12260","areacode":"MT1312260000000"},"\"Austin-Round Rock, TX\"":{"lat":"30.2395128","lon":"-97.6912697","geoid":"12420","areacode":"MT4812420000000"},"\"Bakersfield, CA\"":{"lat":"35.3466288","lon":"-118.7295064","geoid":"12540","areacode":"MT0612540000000"},"\"Baltimore-Columbia-Towson, MD\"":{"lat":"39.304361","lon":"-76.5495009","geoid":"12580","areacode":"MT2412580000000"},"\"Baton Rouge, LA\"":{"lat":"30.5708895","lon":"-91.134533","geoid":"12940","areacode":"MT2212940000000"},"\"Battle Creek, MI\"":{"lat":"42.2429896","lon":"-85.0123853","geoid":"12980","areacode":"MT2612980000000"},"\"Bay City, MI\"":{"lat":"43.6997112","lon":"-83.9787007","geoid":"13020","areacode":"MT2613020000000"},"\"Beaumont-Port Arthur, TX\"":{"lat":"30.3478326","lon":"-94.1203707","geoid":"13140","areacode":"MT4813140000000"},"\"Beckley, WV\"":{"lat":"37.9055556","lon":"-81.1639065","geoid":"13220","areacode":"MT5413220000000"},"\"Bellingham, WA\"":{"lat":"48.8426531","lon":"-121.8364325","geoid":"13380","areacode":"MT5313380000000"},"\"Bend-Redmond, OR\"":{"lat":"43.9151181","lon":"-121.2255751","geoid":"13460","areacode":"MT4113460000000"},"\"Billings, MT\"":{"lat":"45.7754535","lon":"-108.7278711","geoid":"13740","areacode":"MT3013740000000"},"\"Binghamton, NY\"":{"lat":"42.1639276","lon":"-76.0229431","geoid":"13780","areacode":"MT3613780000000"},"\"Birmingham-Hoover, AL\"":{"lat":"33.4623718","lon":"-86.8143378","geoid":"13820","areacode":"MT0113820000000"},"\"Bismarck, ND\"":{"lat":"46.7265938","lon":"-100.9960964","geoid":"13900","areacode":"MT3813900000000"},"\"Blacksburg-Christiansburg-Radford, VA\"":{"lat":"37.1213632","lon":"-80.531516","geoid":"13980","areacode":"MT5113980000000"},"\"Bloomington, IL\"":{"lat":"40.4055934","lon":"-88.8613074","geoid":"14010","areacode":"MT1714010000000"},"\"Bloomington, IN\"":{"lat":"39.2417362","lon":"-86.6717544","geoid":"14020","areacode":"MT1814020000000"},"\"Bloomsburg-Berwick, PA\"":{"lat":"41.0404036","lon":"-76.4616535","geoid":"14100","areacode":"MT4214100000000"},"\"Boise City, ID\"":{"lat":"43.0066485","lon":"-116.1419089","geoid":"14260","areacode":"MT1614260000000"},"\"Boulder, CO\"":{"lat":"40.0949699","lon":"-105.3976911","geoid":"14500","areacode":"MT0814500000000"},"\"Bowling Green, KY\"":{"lat":"37.0468214","lon":"-86.3970677","geoid":"14540","areacode":"MT2114540000000"},"\"Bremerton-Silverdale, WA\"":{"lat":"47.6396874","lon":"-122.6496358","geoid":"14740","areacode":"MT5314740000000"},"\"Brownsville-Harlingen, TX\"":{"lat":"26.1029227","lon":"-97.4789584","geoid":"15180","areacode":"MT4815180000000"},"\"Brunswick, GA\"":{"lat":"31.3017523","lon":"-81.5888759","geoid":"15260","areacode":"MT1315260000000"},"\"Buffalo-Cheektowaga-Niagara Falls, NY\"":{"lat":"43.0443711","lon":"-78.7773351","geoid":"15380","areacode":"MT3615380000000"},"\"Burlington, NC\"":{"lat":"36.0439535","lon":"-79.4005733","geoid":"15500","areacode":"MT3715500000000"},"\"California-Lexington Park, MD\"":{"lat":"38.2202894","lon":"-76.5303837","geoid":"15680","areacode":"MT2415680000000"},"\"Canton-Massillon, OH\"":{"lat":"40.7110722","lon":"-81.2614743","geoid":"15940","areacode":"MT3915940000000"},"\"Cape Coral-Fort Myers, FL\"":{"lat":"26.5516337","lon":"-81.8925086","geoid":"15980","areacode":"MT1215980000000"},"\"Cape Girardeau, MO-IL\"":{"lat":"37.3259361","lon":"-89.7626388","geoid":"16020","areacode":"MT2916020000000"},"\"Carbondale-Marion, IL\"":{"lat":"37.7573308","lon":"-89.193181","geoid":"16060","areacode":"MT1716060000000"},"\"Carson City, NV\"":{"lat":"39.15306","lon":"-119.7473792","geoid":"16180","areacode":"MT3216180000000"},"\"Casper, WY\"":{"lat":"42.9736019","lon":"-106.7650699","geoid":"16220","areacode":"MT5616220000000"},"\"Cedar Rapids, IA\"":{"lat":"42.085592","lon":"-91.6304705","geoid":"16300","areacode":"MT1916300000000"},"\"Chambersburg-Waynesboro, PA\"":{"lat":"39.9266851","lon":"-77.7244974","geoid":"16540","areacode":"MT4216540000000"},"\"Champaign-Urbana, IL\"":{"lat":"40.2344885","lon":"-88.2986226","geoid":"16580","areacode":"MT1716580000000"},"\"Charleston, WV\"":{"lat":"38.2832126","lon":"-81.4925568","geoid":"16620","areacode":"MT5416620000000"},"\"Charleston-North Charleston, SC\"":{"lat":"33.0058308","lon":"-80.006109","geoid":"16700","areacode":"MT4516700000000"},"\"Charlotte-Concord-Gastonia, NC-SC\"":{"lat":"35.187295","lon":"-80.8674907","geoid":"16740","areacode":"MT3716740000000"},"\"Charlottesville, VA\"":{"lat":"37.8545896","lon":"-78.578282","geoid":"16820","areacode":"MT5116820000000"},"\"Chattanooga, TN-GA\"":{"lat":"35.0493612","lon":"-85.3611582","geoid":"16860","areacode":"MT4716860000000"},"\"Cheyenne, WY\"":{"lat":"41.2928302","lon":"-104.660395","geoid":"16940","areacode":"MT5616940000000"},"\"Chicago-Naperville-Elgin, IL-IN-WI\"":{"lat":"41.8235214","lon":"-87.8282967","geoid":"16980","areacode":"MT1716980000000"},"\"Chicago-Naperville-Arlington Heights, IL\"":{"lat":"41.8235214","lon":"-87.8282967","geoid":"16980","areacode":"MT1716980000000"},"\"Chico, CA\"":{"lat":"39.6659588","lon":"-121.6019188","geoid":"17020","areacode":"MT0617020000000"},"\"Cincinnati, OH-KY-IN\"":{"lat":"39.0694579","lon":"-84.4271533","geoid":"17140","areacode":"MT3917140000000"},"\"Clarksville, TN-KY\"":{"lat":"36.7492073","lon":"-87.5582833","geoid":"17300","areacode":"MT4717300000000"},"\"Cleveland, TN\"":{"lat":"35.1381292","lon":"-84.65507","geoid":"17420","areacode":"MT4717420000000"},"\"Cleveland-Elyria, OH\"":{"lat":"41.760392","lon":"-81.7242168","geoid":"17460","areacode":"MT3917460000000"},"\"Coeur d'Alene, ID\"":{"lat":"47.6771129","lon":"-116.6949184","geoid":"17660","areacode":"MT1617660000000"},"\"College Station-Bryan, TX\"":{"lat":"30.7543917","lon":"-96.4885368","geoid":"17780","areacode":"MT4817780000000"},"\"Colorado Springs, CO\"":{"lat":"38.8454635","lon":"-104.6386051","geoid":"17820","areacode":"MT0817820000000"},"\"Columbia, MO\"":{"lat":"38.9898614","lon":"-92.3102022","geoid":"17860","areacode":"MT2917860000000"},"\"Columbia, SC\"":{"lat":"34.0841749","lon":"-81.0405974","geoid":"17900","areacode":"MT4517900000000"},"\"Columbus, GA-AL\"":{"lat":"32.4368358","lon":"-84.9008787","geoid":"17980","areacode":"MT1317980000000"},"\"Columbus, IN\"":{"lat":"39.205843","lon":"-85.8979988","geoid":"18020","areacode":"MT1818020000000"},"\"Columbus, OH\"":{"lat":"39.9685617","lon":"-82.8359105","geoid":"18140","areacode":"MT3918140000000"},"\"Corpus Christi, TX\"":{"lat":"27.8989315","lon":"-97.4012355","geoid":"18580","areacode":"MT4818580000000"},"\"Corvallis, OR\"":{"lat":"44.4938816","lon":"-123.4246641","geoid":"18700","areacode":"MT4118700000000"},"\"Crestview-Fort Walton Beach-Destin, FL\"":{"lat":"30.6410974","lon":"-86.3676916","geoid":"18880","areacode":"MT1218880000000"},"\"Cumberland, MD-WV\"":{"lat":"39.5321854","lon":"-78.8070822","geoid":"19060","areacode":"MT2419060000000"},"\"Dallas-Fort Worth-Arlington, TX\"":{"lat":"32.8225581","lon":"-97.0251332","geoid":"19100","areacode":"MT4819100000000"},"\"Dalton, GA\"":{"lat":"34.7969222","lon":"-84.8563303","geoid":"19140","areacode":"MT1319140000000"},"\"Danville, IL\"":{"lat":"40.1867542","lon":"-87.7267779","geoid":"19180","areacode":"MT1719180000000"},"\"Daphne-Fairhope-Foley, AL\"":{"lat":"30.6592183","lon":"-87.7460666","geoid":"19300","areacode":"MT0119300000000"},"\"Davenport-Moline-Rock Island, IA-IL\"":{"lat":"41.3916799","lon":"-90.460076","geoid":"19340","areacode":"MT1719340000000"},"\"Dayton, OH\"":{"lat":"39.8288538","lon":"-84.1418129","geoid":"19380","areacode":"MT3919380000000"},"\"Decatur, AL\"":{"lat":"34.4893614","lon":"-87.0971469","geoid":"19460","areacode":"MT0119460000000"},"\"Decatur, IL\"":{"lat":"39.8602372","lon":"-88.9615288","geoid":"19500","areacode":"MT1719500000000"},"\"Worcester, MA-CT NECTA\"":{"lat":"42.1668884","lon":"-71.905009","geoid":"79600","areacode":"MT2579600000000"},"\"Bangor, ME NECTA\"":{"lat":"44.9566552","lon":"-68.7721657","geoid":"70750","areacode":"MT2370750000000"},"\"Barnstable Town, MA NECTA\"":{"lat":"41.7092965","lon":"-70.3510769","geoid":"70900","areacode":"MT2570900000000"},"\"Boston-Cambridge-Nashua, MA-NH NECTA\"":{"lat":"42.4131173","lon":"-71.1631857","geoid":"71650","areacode":"MT2571650000000"},"\"Bridgeport-Stamford-Norwalk, CT NECTA\"":{"lat":"41.2232437","lon":"-73.3371782","geoid":"71950","areacode":"MT0971950000000"},"\"Burlington-South Burlington, VT NECTA\"":{"lat":"44.5150631","lon":"-73.0857917","geoid":"72400","areacode":"MT5072400000000"},"\"Danbury, CT NECTA\"":{"lat":"41.4839832","lon":"-73.4066188","geoid":"72850","areacode":"MT0972850000000"},"\"Dover-Durham, NH-ME NECTA\"":{"lat":"43.305687","lon":"-70.9868091","geoid":"73050","areacode":"MT3373050000000"},"\"Hartford-West Hartford-East Hartford, CT NECTA\"":{"lat":"41.7538913","lon":"-72.5716808","geoid":"73450","areacode":"MT0973450000000"},"\"Leominster-Gardner, MA NECTA\"":{"lat":"42.6054231","lon":"-71.9628522","geoid":"74500","areacode":"MT2574500000000"},"\"Lewiston-Auburn, ME NECTA\"":{"lat":"44.2034302","lon":"-70.2241578","geoid":"74650","areacode":"MT2374650000000"},"\"Manchester, NH NECTA\"":{"lat":"43.0515752","lon":"-71.5356682","geoid":"74950","areacode":"MT3374950000000"},"\"New Bedford, MA NECTA\"":{"lat":"41.6210659","lon":"-70.9330754","geoid":"75550","areacode":"MT2575550000000"},"\"New Haven, CT NECTA\"":{"lat":"41.3741044","lon":"-72.7299727","geoid":"75700","areacode":"MT0975700000000"},"\"Norwich-New London-Westerly, CT-RI NECTA\"":{"lat":"41.4588101","lon":"-72.0310176","geoid":"76450","areacode":"MT0976450000000"},"\"Pittsfield, MA NECTA\"":{"lat":"42.444167","lon":"-73.1461498","geoid":"76600","areacode":"MT2576600000000"},"\"Portland-South Portland, ME NECTA\"":{"lat":"43.693238","lon":"-70.4349615","geoid":"76750","areacode":"MT2376750000000"},"\"Portsmouth, NH-ME NECTA\"":{"lat":"43.0605947","lon":"-70.7803481","geoid":"76900","areacode":"MT3376900000000"},"\"Providence-Warwick, RI-MA NECTA\"":{"lat":"41.6993072","lon":"-71.4606337","geoid":"77200","areacode":"MT4477200000000"},"\"Springfield, MA-CT NECTA\"":{"lat":"42.2463673","lon":"-72.6402725","geoid":"78100","areacode":"MT2578100000000"},"\"Waterbury, CT NECTA\"":{"lat":"41.5621364","lon":"-73.1013221","geoid":"78700","areacode":"MT0978700000000"}} 